{
  "type": "FeatureCollection",
  "features": [
    {
      "type": "Feature",
      "properties": {
        "norad_id": 35171,
        "name": "FENGYUN 1C DEB",
        "group": "fengyun-1c-debris",
        "lat": 10.151506011385454,
        "lon": -39.32975746157684,
        "alt_km": 996.1069552377257,
        "timestamp": "2025-12-13T16:48:32.997699+00:00",
        "meta_object_name": "FENGYUN 1C DEB",
        "meta_object_id": "1999-025DNB",
        "meta_epoch": "2025-12-12T21:03:14.512320",
        "meta_mean_motion": 13.94966828,
        "meta_eccentricity": 0.01379064,
        "meta_inclination": 99.0086,
        "meta_ra_of_asc_node": 138.2387,
        "meta_arg_of_pericenter": 318.3422,
        "meta_mean_anomaly": 40.73,
        "meta_ephemeris_type": 0,
        "meta_classification_type": "U",
        "meta_norad_cat_id": 35171,
        "meta_element_set_no": 999,
        "meta_rev_at_epoch": 88560,
        "meta_bstar": 0.0023007152,
        "meta_mean_motion_dot": 3.307e-05,
        "meta_mean_motion_ddot": 0,
        "tle_line1": "1 35171U 99025DNB 25346.87725130  .00003307  00000+0  23007-2 0  9991",
        "tle_line2": "2 35171  99.0086 138.2387 0137906 318.3422  40.7300 13.94966828885609"
      },
      "geometry": {
        "type": "Point",
        "coordinates": [
          -39.32975746157684,
          10.151506011385454
        ]
      }
    },
    {
      "type": "Feature",
      "properties": {
        "norad_id": 35173,
        "name": "FENGYUN 1C DEB",
        "group": "fengyun-1c-debris",
        "lat": -61.41763561532821,
        "lon": 77.67490273642409,
        "alt_km": 1081.0488474653048,
        "timestamp": "2025-12-13T16:48:32.997709+00:00",
        "meta_object_name": "FENGYUN 1C DEB",
        "meta_object_id": "1999-025DND",
        "meta_epoch": "2025-12-10T01:09:06.987456",
        "meta_mean_motion": 13.3731211,
        "meta_eccentricity": 0.04906207,
        "meta_inclination": 99.7862,
        "meta_ra_of_asc_node": 55.6823,
        "meta_arg_of_pericenter": 220.1845,
        "meta_mean_anomaly": 136.2028,
        "meta_ephemeris_type": 0,
        "meta_classification_type": "U",
        "meta_norad_cat_id": 35173,
        "meta_element_set_no": 999,
        "meta_rev_at_epoch": 65793,
        "meta_bstar": 0.0037513626,
        "meta_mean_motion_dot": 3.885e-05,
        "meta_mean_motion_ddot": 0,
        "tle_line1": "1 35173U 99025DND 25344.04799754  .00003885  00000+0  37514-2 0  9992",
        "tle_line2": "2 35173  99.7862  55.6823 0490620 220.1845 136.2028 13.37312110657938"
      },
      "geometry": {
        "type": "Point",
        "coordinates": [
          77.67490273642409,
          -61.41763561532821
        ]
      }
    },
    {
      "type": "Feature",
      "properties": {
        "norad_id": 35174,
        "name": "FENGYUN 1C DEB",
        "group": "fengyun-1c-debris",
        "lat": -38.7330740327013,
        "lon": -30.59368535145625,
        "alt_km": 659.9905839250423,
        "timestamp": "2025-12-13T16:48:32.997719+00:00",
        "meta_object_name": "FENGYUN 1C DEB",
        "meta_object_id": "1999-025DNE",
        "meta_epoch": "2025-11-20T15:53:09.659040",
        "meta_mean_motion": 14.97261972,
        "meta_eccentricity": 0.01569814,
        "meta_inclination": 98.9653,
        "meta_ra_of_asc_node": 295.6935,
        "meta_arg_of_pericenter": 254.7539,
        "meta_mean_anomaly": 103.6277,
        "meta_ephemeris_type": 0,
        "meta_classification_type": "U",
        "meta_norad_cat_id": 35174,
        "meta_element_set_no": 999,
        "meta_rev_at_epoch": 89835,
        "meta_bstar": 0.0019136785,
        "meta_mean_motion_dot": 0.00028569,
        "meta_mean_motion_ddot": 0,
        "tle_line1": "1 35174U 99025DNE 25324.66191735  .00028569  00000+0  19137-2 0  9991",
        "tle_line2": "2 35174  98.9653 295.6935 0156981 254.7539 103.6277 14.97261972898353"
      },
      "geometry": {
        "type": "Point",
        "coordinates": [
          -30.59368535145625,
          -38.7330740327013
        ]
      }
    },
    {
      "type": "Feature",
      "properties": {
        "norad_id": 35175,
        "name": "FENGYUN 1C DEB",
        "group": "fengyun-1c-debris",
        "lat": -44.510353680432665,
        "lon": 167.48773745691005,
        "alt_km": 802.40710525757,
        "timestamp": "2025-12-13T16:48:32.997729+00:00",
        "meta_object_name": "FENGYUN 1C DEB",
        "meta_object_id": "1999-025DNF",
        "meta_epoch": "2025-12-07T17:49:32.813760",
        "meta_mean_motion": 14.2129013,
        "meta_eccentricity": 0.00571803,
        "meta_inclination": 98.5747,
        "meta_ra_of_asc_node": 350.2325,
        "meta_arg_of_pericenter": 294.8485,
        "meta_mean_anomaly": 64.6753,
        "meta_ephemeris_type": 0,
        "meta_classification_type": "U",
        "meta_norad_cat_id": 35175,
        "meta_element_set_no": 999,
        "meta_rev_at_epoch": 61164,
        "meta_bstar": 0.00067844318,
        "meta_mean_motion_dot": 1.46e-05,
        "meta_mean_motion_ddot": 0,
        "tle_line1": "1 35175U 99025DNF 25341.74274090  .00001460  00000+0  67844-3 0  9996",
        "tle_line2": "2 35175  98.5747 350.2325 0057180 294.8485  64.6753 14.21290130611646"
      },
      "geometry": {
        "type": "Point",
        "coordinates": [
          167.48773745691005,
          -44.510353680432665
        ]
      }
    },
    {
      "type": "Feature",
      "properties": {
        "norad_id": 35176,
        "name": "FENGYUN 1C DEB",
        "group": "fengyun-1c-debris",
        "lat": -48.924891824077115,
        "lon": 144.48240366333445,
        "alt_km": 881.663682347009,
        "timestamp": "2025-12-13T16:48:32.997739+00:00",
        "meta_object_name": "FENGYUN 1C DEB",
        "meta_object_id": "1999-025DNG",
        "meta_epoch": "2025-12-12T05:50:16.890720",
        "meta_mean_motion": 14.16993705,
        "meta_eccentricity": 0.00546387,
        "meta_inclination": 98.5548,
        "meta_ra_of_asc_node": 333.0256,
        "meta_arg_of_pericenter": 58.0358,
        "meta_mean_anomaly": 302.6113,
        "meta_ephemeris_type": 0,
        "meta_classification_type": "U",
        "meta_norad_cat_id": 35176,
        "meta_element_set_no": 999,
        "meta_rev_at_epoch": 90921,
        "meta_bstar": 0.00052794791,
        "meta_mean_motion_dot": 1.035e-05,
        "meta_mean_motion_ddot": 0,
        "tle_line1": "1 35176U 99025DNG 25346.24325105  .00001035  00000+0  52795-3 0  9998",
        "tle_line2": "2 35176  98.5548 333.0256 0054638  58.0358 302.6113 14.16993705909212"
      },
      "geometry": {
        "type": "Point",
        "coordinates": [
          144.48240366333445,
          -48.924891824077115
        ]
      }
    },
    {
      "type": "Feature",
      "properties": {
        "norad_id": 35191,
        "name": "FENGYUN 1C DEB",
        "group": "fengyun-1c-debris",
        "lat": -73.91151652785786,
        "lon": 116.17438909390432,
        "alt_km": 883.667980528141,
        "timestamp": "2025-12-13T16:48:32.997749+00:00",
        "meta_object_name": "FENGYUN 1C DEB",
        "meta_object_id": "1999-025DNX",
        "meta_epoch": "2025-12-10T04:43:45.837120",
        "meta_mean_motion": 13.91201737,
        "meta_eccentricity": 0.0102149,
        "meta_inclination": 99.0153,
        "meta_ra_of_asc_node": 326.1699,
        "meta_arg_of_pericenter": 215.7402,
        "meta_mean_anomaly": 143.6891,
        "meta_ephemeris_type": 0,
        "meta_classification_type": "U",
        "meta_norad_cat_id": 35191,
        "meta_element_set_no": 999,
        "meta_rev_at_epoch": 87866,
        "meta_bstar": 0.00022431,
        "meta_mean_motion_dot": 2.51e-06,
        "meta_mean_motion_ddot": 0,
        "tle_line1": "1 35191U 99025DNX 25344.19705830  .00000251  00000+0  22431-3 0  9997",
        "tle_line2": "2 35191  99.0153 326.1699 0102149 215.7402 143.6891 13.91201737878663"
      },
      "geometry": {
        "type": "Point",
        "coordinates": [
          116.17438909390432,
          -73.91151652785786
        ]
      }
    },
    {
      "type": "Feature",
      "properties": {
        "norad_id": 35194,
        "name": "FENGYUN 1C DEB",
        "group": "fengyun-1c-debris",
        "lat": 39.30725808362739,
        "lon": 63.68853066974354,
        "alt_km": 620.9492007366762,
        "timestamp": "2025-12-13T16:48:32.997759+00:00",
        "meta_object_name": "FENGYUN 1C DEB",
        "meta_object_id": "1999-025DPA",
        "meta_epoch": "2025-12-12T01:09:46.826496",
        "meta_mean_motion": 14.60293761,
        "meta_eccentricity": 0.01145377,
        "meta_inclination": 98.9481,
        "meta_ra_of_asc_node": 69.3173,
        "meta_arg_of_pericenter": 78.0348,
        "meta_mean_anomaly": 283.3663,
        "meta_ephemeris_type": 0,
        "meta_classification_type": "U",
        "meta_norad_cat_id": 35194,
        "meta_element_set_no": 999,
        "meta_rev_at_epoch": 65380,
        "meta_bstar": 0.0013884757,
        "meta_mean_motion_dot": 7.302e-05,
        "meta_mean_motion_ddot": 0,
        "tle_line1": "1 35194U 99025DPA 25346.04845864  .00007302  00000+0  13885-2 0  9994",
        "tle_line2": "2 35194  98.9481  69.3173 0114537  78.0348 283.3663 14.60293761653805"
      },
      "geometry": {
        "type": "Point",
        "coordinates": [
          63.68853066974354,
          39.30725808362739
        ]
      }
    }
  ]
}